[
    {
        "Name": "M\u00fcller",
        "Vorname": "Peter",
        "Geb. Datum": "1990-05-15",
        "Geb. Ort": "Berlin",
        "Hausnummer": "12a",
        "Strasse": "Hauptstra\u00dfe",
        "Ort": "Berlin",
        "PLZ": "10115"
    },
    {
        "Name": "Schmidt",
        "Vorname": "Anna",
        "Geb. Datum": "1985-09-20",
        "Geb. Ort": "M\u00fcnchen",
        "Hausnummer": "45",
        "Strasse": "Bahnhofstra\u00dfe",
        "Ort": "M\u00fcnchen",
        "PLZ": "80331"
    },
    {
        "Name": "Schneider",
        "Vorname": "Michael",
        "Geb. Datum": "1978-03-10",
        "Geb. Ort": "Hamburg",
        "Hausnummer": "78",
        "Strasse": "Kirchplatz",
        "Ort": "Hamburg",
        "PLZ": "20095"
    },
    {
        "Name": "Fischer",
        "Vorname": "Maria",
        "Geb. Datum": "1995-11-25",
        "Geb. Ort": "Frankfurt am Main",
        "Hausnummer": "101",
        "Strasse": "Schulweg",
        "Ort": "Frankfurt am Main",
        "PLZ": "60311"
    },
    {
        "Name": "Weber",
        "Vorname": "Thomas",
        "Geb. Datum": "1980-07-12",
        "Geb. Ort": "Stuttgart",
        "Hausnummer": "13b",
        "Strasse": "Marktplatz",
        "Ort": "Stuttgart",
        "PLZ": "70173"
    },
    {
        "Name": "Meyer",
        "Vorname": "Sarah",
        "Geb. Datum": "1992-01-03",
        "Geb. Ort": "D\u00fcsseldorf",
        "Hausnummer": "15",
        "Strasse": "Lindenallee",
        "Ort": "D\u00fcsseldorf",
        "PLZ": "40213"
    },
    {
        "Name": "Wagner",
        "Vorname": "Stefan",
        "Geb. Datum": "1976-08-28",
        "Geb. Ort": "Hannover",
        "Hausnummer": "17c",
        "Strasse": "Gartenstra\u00dfe",
        "Ort": "Hannover",
        "PLZ": "30159"
    },
    {
        "Name": "Becker",
        "Vorname": "Julia",
        "Geb. Datum": "1983-04-17",
        "Geb. Ort": "Leipzig",
        "Hausnummer": "19",
        "Strasse": "Birkenweg",
        "Ort": "Leipzig",
        "PLZ": "04109"
    },
    {
        "Name": "Schulz",
        "Vorname": "David",
        "Geb. Datum": "1987-06-30",
        "Geb. Ort": "Dresden",
        "Hausnummer": "21",
        "Strasse": "Am Hang",
        "Ort": "Dresden",
        "PLZ": "01067"
    },
    {
        "Name": "Hoffmann",
        "Vorname": "Laura",
        "Geb. Datum": "1998-02-22",
        "Geb. Ort": "Essen",
        "Hausnummer": "23",
        "Strasse": "Friedhofsweg",
        "Ort": "Essen",
        "PLZ": "45127"
    },
    {
        "Name": "Koch",
        "Vorname": "Daniel",
        "Geb. Datum": "1989-12-05",
        "Geb. Ort": "K\u00f6ln",
        "Hausnummer": "25",
        "Strasse": "Eichenweg",
        "Ort": "K\u00f6ln",
        "PLZ": "50667"
    },
    {
        "Name": "Bauer",
        "Vorname": "Lena",
        "Geb. Datum": "1979-10-08",
        "Geb. Ort": "Bielefeld",
        "Hausnummer": "27",
        "Strasse": "Bergstra\u00dfe",
        "Ort": "Bielefeld",
        "PLZ": "33602"
    },
    {
        "Name": "Richter",
        "Vorname": "Jan",
        "Geb. Datum": "1993-07-19",
        "Geb. Ort": "Dortmund",
        "Hausnummer": "29",
        "Strasse": "Tannenweg",
        "Ort": "Dortmund",
        "PLZ": "44135"
    },
    {
        "Name": "Klein",
        "Vorname": "Nicole",
        "Geb. Datum": "1982-09-14",
        "Geb. Ort": "M\u00fcnster",
        "Hausnummer": "31",
        "Strasse": "Rosenstra\u00dfe",
        "Ort": "M\u00fcnster",
        "PLZ": "48143"
    },
    {
        "Name": "Wolf",
        "Vorname": "Kevin",
        "Geb. Datum": "1975-11-28",
        "Geb. Ort": "Bochum",
        "Hausnummer": "33",
        "Strasse": "Dorfplatz",
        "Ort": "Bochum",
        "PLZ": "45127"
    },
    {
        "Name": "Schr\u00f6der",
        "Vorname": "Jessica",
        "Geb. Datum": "1991-03-01",
        "Geb. Ort": "Heidelberg",
        "Hausnummer": "35",
        "Strasse": "Ahornweg",
        "Ort": "Heidelberg",
        "PLZ": "69117"
    },
    {
        "Name": "Lange",
        "Vorname": "Patrick",
        "Geb. Datum": "1984-08-18",
        "Geb. Ort": "Freiburg im Breisgau",
        "Hausnummer": "37",
        "Strasse": "Brunnenweg",
        "Ort": "Freiburg im Breisgau",
        "PLZ": "79098"
    },
    {
        "Name": "Hofmann",
        "Vorname": "Christina",
        "Geb. Datum": "1996-04-12",
        "Geb. Ort": "L\u00fcbeck",
        "Hausnummer": "39",
        "Strasse": "Buchenweg",
        "Ort": "L\u00fcbeck",
        "PLZ": "23552"
    },
    {
        "Name": "Sch\u00e4fer",
        "Vorname": "Max",
        "Geb. Datum": "1981-06-09",
        "Geb. Ort": "Kiel",
        "Hausnummer": "41",
        "Strasse": "Bachstra\u00dfe",
        "Ort": "Kiel",
        "PLZ": "24103"
    },
    {
        "Name": "K\u00f6nig",
        "Vorname": "Vanessa",
        "Geb. Datum": "1977-12-24",
        "Geb. Ort": "Oldenburg",
        "Hausnummer": "43",
        "Strasse": "M\u00fchlenweg",
        "Ort": "Oldenburg",
        "PLZ": "26122"
    }
]